{
  "type": "FeatureCollection",
  "features": [
    {
      "type": "Feature",
      "properties": {
        "norad_id": 38709,
        "name": "EXACTVIEW-1 (ADS-1B)",
        "group": "resource",
        "lat": 80.78958339171574,
        "lon": -15.698076696441934,
        "alt_km": 799.5382607719293,
        "timestamp": "2025-12-05T07:38:18.505256+00:00",
        "meta_object_name": "EXACTVIEW-1 (ADS-1B)",
        "meta_object_id": "2012-039C",
        "meta_epoch": "2025-12-04T14:21:21.311712",
        "meta_mean_motion": 14.24902764,
        "meta_eccentricity": 0.0011098,
        "meta_inclination": 98.9636,
        "meta_ra_of_asc_node": 86.8176,
        "meta_arg_of_pericenter": 17.3472,
        "meta_mean_anomaly": 342.8083,
        "meta_ephemeris_type": 0,
        "meta_classification_type": "U",
        "meta_norad_cat_id": 38709,
        "meta_element_set_no": 999,
        "meta_rev_at_epoch": 69499,
        "meta_bstar": 0.0001602,
        "meta_mean_motion_dot": 3.28e-06,
        "meta_mean_motion_ddot": 0,
        "tle_line1": "1 38709U 12039C   25338.59816333  .00000328  00000+0  16020-3 0  9995",
        "tle_line2": "2 38709  98.9636  86.8176 0011098  17.3472 342.8083 14.24902764694993"
      },
      "geometry": {
        "type": "Point",
        "coordinates": [
          -15.698076696441934,
          80.78958339171574
        ]
      }
    },
    {
      "type": "Feature",
      "properties": {
        "norad_id": 38755,
        "name": "SPOT 6",
        "group": "resource",
        "lat": -57.27796311654729,
        "lon": 57.13982380831386,
        "alt_km": 705.4915420439738,
        "timestamp": "2025-12-05T07:38:18.505266+00:00",
        "meta_object_name": "SPOT 6",
        "meta_object_id": "2012-047A",
        "meta_epoch": "2025-12-04T18:44:01.426848",
        "meta_mean_motion": 14.58591754,
        "meta_eccentricity": 0.0001054,
        "meta_inclination": 98.1583,
        "meta_ra_of_asc_node": 43.7112,
        "meta_arg_of_pericenter": 100.7713,
        "meta_mean_anomaly": 259.3605,
        "meta_ephemeris_type": 0,
        "meta_classification_type": "U",
        "meta_norad_cat_id": 38755,
        "meta_element_set_no": 999,
        "meta_rev_at_epoch": 70471,
        "meta_bstar": 0.00018959,
        "meta_mean_motion_dot": 8.37e-06,
        "meta_mean_motion_ddot": 0,
        "tle_line1": "1 38755U 12047A   25338.78057207  .00000837  00000+0  18959-3 0  9991",
        "tle_line2": "2 38755  98.1583  43.7112 0001054 100.7713 259.3605 14.58591754704719"
      },
      "geometry": {
        "type": "Point",
        "coordinates": [
          57.13982380831386,
          -57.27796311654729
        ]
      }
    },
    {
      "type": "Feature",
      "properties": {
        "norad_id": 39019,
        "name": "PLEIADES 1B",
        "group": "resource",
        "lat": -21.65788378306011,
        "lon": -131.1876414836785,
        "alt_km": 703.5957640308998,
        "timestamp": "2025-12-05T07:38:18.505285+00:00",
        "meta_object_name": "PLEIADES 1B",
        "meta_object_id": "2012-068A",
        "meta_epoch": "2025-12-04T17:32:40.845984",
        "meta_mean_motion": 14.58540991,
        "meta_eccentricity": 0.000124,
        "meta_inclination": 98.1804,
        "meta_ra_of_asc_node": 51.509,
        "meta_arg_of_pericenter": 87.3558,
        "meta_mean_anomaly": 272.7783,
        "meta_ephemeris_type": 0,
        "meta_classification_type": "U",
        "meta_norad_cat_id": 39019,
        "meta_element_set_no": 999,
        "meta_rev_at_epoch": 69250,
        "meta_bstar": 0.00019356,
        "meta_mean_motion_dot": 8.54e-06,
        "meta_mean_motion_ddot": 0,
        "tle_line1": "1 39019U 12068A   25338.73102831  .00000854  00000+0  19356-3 0  9998",
        "tle_line2": "2 39019  98.1804  51.5090 0001240  87.3558 272.7783 14.58540991692501"
      },
      "geometry": {
        "type": "Point",
        "coordinates": [
          -131.1876414836785,
          -21.65788378306011
        ]
      }
    },
    {
      "type": "Feature",
      "properties": {
        "norad_id": 39030,
        "name": "GOKTURK 2",
        "group": "resource",
        "lat": -28.92615229325664,
        "lon": -174.3815046201937,
        "alt_km": 650.5159495300004,
        "timestamp": "2025-12-05T07:38:18.505296+00:00",
        "meta_object_name": "GOKTURK 2",
        "meta_object_id": "2012-073A",
        "meta_epoch": "2025-12-04T17:07:13.274112",
        "meta_mean_motion": 14.75274165,
        "meta_eccentricity": 8.16e-05,
        "meta_inclination": 97.6898,
        "meta_ra_of_asc_node": 180.7614,
        "meta_arg_of_pericenter": 98.173,
        "meta_mean_anomaly": 261.9573,
        "meta_ephemeris_type": 0,
        "meta_classification_type": "U",
        "meta_norad_cat_id": 39030,
        "meta_element_set_no": 999,
        "meta_rev_at_epoch": 69583,
        "meta_bstar": 0.00019104,
        "meta_mean_motion_dot": 1.246e-05,
        "meta_mean_motion_ddot": 0,
        "tle_line1": "1 39030U 12073A   25338.71334808  .00001246  00000+0  19104-3 0  9993",
        "tle_line2": "2 39030  97.6898 180.7614 0000816  98.1730 261.9573 14.75274165695830"
      },
      "geometry": {
        "type": "Point",
        "coordinates": [
          -174.3815046201937,
          -28.92615229325664
        ]
      }
    },
    {
      "type": "Feature",
      "properties": {
        "norad_id": 39084,
        "name": "LANDSAT 8",
        "group": "resource",
        "lat": 49.39917687360324,
        "lon": 37.80590752018036,
        "alt_km": 697.3583582644187,
        "timestamp": "2025-12-05T07:38:18.505306+00:00",
        "meta_object_name": "LANDSAT 8",
        "meta_object_id": "2013-008A",
        "meta_epoch": "2025-12-04T16:34:36.045408",
        "meta_mean_motion": 14.57102749,
        "meta_eccentricity": 0.000116,
        "meta_inclination": 98.2083,
        "meta_ra_of_asc_node": 46.8827,
        "meta_arg_of_pericenter": 84.7723,
        "meta_mean_anomaly": 275.3608,
        "meta_ephemeris_type": 0,
        "meta_classification_type": "U",
        "meta_norad_cat_id": 39084,
        "meta_element_set_no": 999,
        "meta_rev_at_epoch": 66957,
        "meta_bstar": 0.00028613,
        "meta_mean_motion_dot": 1.244e-05,
        "meta_mean_motion_ddot": 0,
        "tle_line1": "1 39084U 13008A   25338.69069497  .00001244  00000+0  28613-3 0  9990",
        "tle_line2": "2 39084  98.2083  46.8827 0001160  84.7723 275.3608 14.57102749669574"
      },
      "geometry": {
        "type": "Point",
        "coordinates": [
          37.80590752018036,
          49.39917687360324
        ]
      }
    },
    {
      "type": "Feature",
      "properties": {
        "norad_id": 39086,
        "name": "SARAL",
        "group": "resource",
        "lat": -34.25986304753875,
        "lon": 169.22699807288072,
        "alt_km": 790.4781844384543,
        "timestamp": "2025-12-05T07:38:18.505316+00:00",
        "meta_object_name": "SARAL",
        "meta_object_id": "2013-009A",
        "meta_epoch": "2025-12-04T16:42:56.334240",
        "meta_mean_motion": 14.32752783,
        "meta_eccentricity": 0.0002671,
        "meta_inclination": 98.5506,
        "meta_ra_of_asc_node": 162.7318,
        "meta_arg_of_pericenter": 124.0685,
        "meta_mean_anomaly": 236.0752,
        "meta_ephemeris_type": 0,
        "meta_classification_type": "U",
        "meta_norad_cat_id": 39086,
        "meta_element_set_no": 999,
        "meta_rev_at_epoch": 66775,
        "meta_bstar": 0.00011941,
        "meta_mean_motion_dot": 2.82e-06,
        "meta_mean_motion_ddot": 0,
        "tle_line1": "1 39086U 13009A   25338.69648535  .00000282  00000+0  11941-3 0  9996",
        "tle_line2": "2 39086  98.5506 162.7318 0002671 124.0685 236.0752 14.32752783667759"
      },
      "geometry": {
        "type": "Point",
        "coordinates": [
          169.22699807288072,
          -34.25986304753875
        ]
      }
    },
    {
      "type": "Feature",
      "properties": {
        "norad_id": 39150,
        "name": "GAOFEN-1",
        "group": "resource",
        "lat": 15.312832050638928,
        "lon": 47.920161990084736,
        "alt_km": 652.0202155905463,
        "timestamp": "2025-12-05T07:38:18.505327+00:00",
        "meta_object_name": "GAOFEN-1",
        "meta_object_id": "2013-018A",
        "meta_epoch": "2025-12-04T18:33:24.773760",
        "meta_mean_motion": 14.765122,
        "meta_eccentricity": 0.0017736,
        "meta_inclination": 97.9336,
        "meta_ra_of_asc_node": 49.573,
        "meta_arg_of_pericenter": 168.0019,
        "meta_mean_anomaly": 192.1617,
        "meta_ephemeris_type": 0,
        "meta_classification_type": "U",
        "meta_norad_cat_id": 39150,
        "meta_element_set_no": 999,
        "meta_rev_at_epoch": 67955,
        "meta_bstar": 0.0002314,
        "meta_mean_motion_dot": 1.565e-05,
        "meta_mean_motion_ddot": 0,
        "tle_line1": "1 39150U 13018A   25338.77320340  .00001565  00000+0  23140-3 0  9997",
        "tle_line2": "2 39150  97.9336  49.5730 0017736 168.0019 192.1617 14.76512200679551"
      },
      "geometry": {
        "type": "Point",
        "coordinates": [
          47.920161990084736,
          15.312832050638928
        ]
      }
    }
  ]
}